NORAD_CAT_ID,OBJECT_NAME,OBJECT_TYPE,EPOCH,MEAN_MOTION,ECCENTRICITY,INCLINATION,RA_OF_ASC_NODE,ARG_OF_PERICENTER,MEAN_ANOMALY,BSTAR,MEAN_MOTION_DOT,MEAN_MOTION_DDOT,TLE_LINE0,TLE_LINE1,TLE_LINE2,SEMIMAJOR_AXIS,PERIOD,APOGEE,PERIGEE,DECAYED
53854.0,STARLINK-4800,PAYLOAD,2023-05-04 13:20:04,15.08846394,6.03e-05,53.2159,273.6983,76.8873,283.2186,0.00017098,2.435e-05,0.0,0 STARLINK-4800,1 53854U 22114AN  23124.55560734  .00002435  00000-0  17098-3 0  9994,2 53854  53.2159 273.6983 0000603  76.8873 283.2186 15.08846394 36083,6917.861,95.437,540.143,539.309,0.0
53854.0,STARLINK-4800,PAYLOAD,2023-05-04 19:41:36,15.08852139,6.06e-05,53.2157,272.5079,84.5866,275.5195,0.00044612,6.822e-05,0.0,0 STARLINK-4800,1 53854U 22114AN  23124.82056609  .00006822  00000-0  44612-3 0  9991,2 53854  53.2157 272.5079 0000606  84.5866 275.5195 15.08852139 36129,6917.843,95.437,540.128,539.289,0.0
53854.0,STARLINK-4800,PAYLOAD,2023-05-04 21:17:00,15.08855453,6.42e-05,53.2161,272.211,82.5928,277.5137,0.00068417,0.00010622,0.0,0 STARLINK-4800,1 53854U 22114AN  23124.88680614  .00010622  00000-0  68417-3 0  9998,2 53854  53.2161 272.2110 0000642  82.5928 277.5137 15.08855453 35594,6917.833,95.437,540.142,539.254,0.0
53854.0,STARLINK-4800,PAYLOAD,2023-05-05 16:21:38,15.08844272,6.48e-05,53.2171,268.6461,84.2872,275.8194,0.00027255,4.053e-05,0.0,0 STARLINK-4800,1 53854U 22114AN  23125.68169066  .00004053  00000-0  27255-3 0  9996,2 53854  53.2171 268.6461 0000648  84.2872 275.8194 15.08844272 35711,6917.867,95.437,540.181,539.284,0.0
53854.0,STARLINK-4800,PAYLOAD,2023-05-05 19:32:24,15.08848375,6.7e-05,53.2171,268.051,94.0804,266.0265,0.0004314,6.586e-05,0.0,0 STARLINK-4800,1 53854U 22114AN  23125.81416996  .00006586  00000-0  43140-3 0  9992,2 53854  53.2171 268.0510 0000670  94.0804 266.0265 15.08848375 36270,6917.855,95.437,540.183,539.256,0.0
53854.0,STARLINK-4800,PAYLOAD,2023-05-06 16:12:24,15.08859401,6.55e-05,53.2152,264.1827,82.1554,277.9512,0.00094352,0.00014768,0.0,0 STARLINK-4800,1 53854U 22114AN  23126.67528773  .00014768  00000-0  94352-3 0  9996,2 53854  53.2152 264.1827 0000655  82.1554 277.9512 15.08859401 36403,6917.821,95.436,540.139,539.233,0.0
53854.0,STARLINK-4800,PAYLOAD,2023-05-07 01:44:43,15.08850239,6.73e-05,53.2154,262.3977,73.1466,286.96,0.00049325,7.573e-05,0.0,0 STARLINK-4800,1 53854U 22114AN  23127.07272917  .00007573  00000-0  49325-3 0  9993,2 53854  53.2154 262.3977 0000673  73.1466 286.9600 15.08850239 35927,6917.849,95.437,540.18,539.249,0.0
53854.0,STARLINK-4800,PAYLOAD,2023-05-07 12:52:25,15.08835579,5.76e-05,53.2157,260.3179,114.1536,245.9516,-2.3233e-05,-6.57e-06,0.0,0 STARLINK-4800,1 53854U 22114AN  23127.53641174 -.00000657  00000-0 -23233-4 0  9998,2 53854  53.2157 260.3179 0000576 114.1536 245.9516 15.08835579 35996,6917.894,95.438,540.157,539.36,0.0
53854.0,STARLINK-4800,PAYLOAD,2023-05-07 16:03:12,15.0883478,3.57e-05,53.2158,259.7236,117.3179,242.7849,0.0003717,5.632e-05,0.0,0 STARLINK-4800,1 53854U 22114AN  23127.66889225  .00005632  00000-0  37170-3 0  9993,2 53854  53.2158 259.7236 0000357 117.3179 242.7849 15.08834780 36558,6917.896,95.438,540.008,539.514,0.0
53854.0,STARLINK-4800,PAYLOAD,2023-05-08 17:29:22,15.08853803,5.73e-05,53.2149,254.9667,96.7019,263.4038,0.00076876,0.00011973,0.0,0 STARLINK-4800,1 53854U 22114AN  23128.72873197  .00011973  00000-0  76876-3 0  9993,2 53854  53.2149 254.9667 0000573  96.7019 263.4038 15.08853803 36711,6917.838,95.437,540.1,539.307,0.0
53854.0,STARLINK-4800,PAYLOAD,2023-05-09 14:09:23,15.08844236,6.03e-05,53.2149,251.1005,86.4836,273.6225,0.0003767,5.713e-05,0.0,0 STARLINK-4800,1 53854U 22114AN  23129.58985483  .00005713  00000-0  37670-3 0  9994,2 53854  53.2149 251.1005 0000603  86.4836 273.6225 15.08844236 36848,6917.867,95.437,540.15,539.315,0.0
53854.0,STARLINK-4800,PAYLOAD,2023-05-10 12:24:47,15.08833931,1.22e-05,53.2147,246.9378,334.5989,25.4997,0.00063808,9.88e-05,0.0,0 STARLINK-4800,1 53854U 22114AN  23130.51721716  .00009880  00000-0  63808-3 0  9997,2 53854  53.2147 246.9378 0000122 334.5989  25.4997 15.08833931 36987,6917.899,95.438,539.848,539.68,0.0
53854.0,STARLINK-4800,PAYLOAD,2023-05-10 14:00:10,15.08843452,5.36e-05,53.2147,246.6382,79.1714,280.9338,0.0011986,0.00018841,0.0,0 STARLINK-4800,1 53854U 22114AN  23130.58345777  .00018841  00000-0  11986-2 0  9999,2 53854  53.2147 246.6382 0000536  79.1714 280.9338 15.08843452 36454,6917.87,95.437,540.106,539.364,0.0
53854.0,STARLINK-4800,PAYLOAD,2023-05-11 10:40:11,15.08849567,0.0001028,53.2161,242.7686,114.5648,245.5451,0.00063126,9.775e-05,0.0,0 STARLINK-4800,1 53854U 22114AN  23131.44457622  .00009775  00000-0  63126-3 0  9998,2 53854  53.2161 242.7686 0001028 114.5648 245.5451 15.08849567 37122,6917.851,95.437,540.427,539.005,0.0
53854.0,STARLINK-4800,PAYLOAD,2023-05-11 13:50:57,15.08847177,0.0001022,53.2163,242.1768,82.1562,277.9546,0.00035809,5.417e-05,0.0,0 STARLINK-4800,1 53854U 22114AN  23131.57705695  .00005417  00000-0  35809-3 0  9994,2 53854  53.2163 242.1768 0001022  82.1562 277.9546 15.08847177 37149,6917.858,95.437,540.43,539.016,0.0
53854.0,STARLINK-4800,PAYLOAD,2023-05-13 13:32:31,15.08846797,7.55e-05,53.2155,233.2571,67.1755,292.9316,0.00036973,5.602e-05,0.0,0 STARLINK-4800,1 53854U 22114AN  23133.56425621  .00005602  00000-0  36973-3 0  9992,2 53854  53.2155 233.2571 0000755  67.1755 292.9316 15.08846797 36904,6917.86,95.437,540.247,539.202,0.0
53854.0,STARLINK-4800,PAYLOAD,2023-05-13 18:18:40,15.08857121,7e-05,53.2154,232.3652,58.0378,302.0682,0.0002985,4.468e-05,0.0,0 STARLINK-4800,1 53854U 22114AN  23133.76296977  .00004468  00000-0  29850-3 0  9999,2 53854  53.2154 232.3652 0000700  58.0378 302.0682 15.08857121 37478,6917.828,95.436,540.177,539.209,0.0
53854.0,STARLINK-4800,PAYLOAD,2023-05-14 07:01:46,15.08833873,7.62e-05,53.2155,229.9866,74.077,286.0306,1.2038e-05,-9.6e-07,0.0,0 STARLINK-4800,1 53854U 22114AN  23134.29290218 -.00000096  00000-0  12038-4 0  9995,2 53854  53.2155 229.9866 0000762  74.0770 286.0306 15.08833873 37012,6917.899,95.438,540.291,539.237,0.0
53854.0,STARLINK-4800,PAYLOAD,2023-05-14 13:23:19,15.08838329,8.03e-05,53.2155,228.797,74.3104,285.7977,0.00025597,3.788e-05,0.0,0 STARLINK-4800,1 53854U 22114AN  23134.55786042  .00003788  00000-0  25597-3 0  9992,2 53854  53.2155 228.7970 0000803  74.3104 285.7977 15.08838329 37599,6917.885,95.438,540.306,539.195,0.0
53854.0,STARLINK-4800,PAYLOAD,2023-05-14 18:09:28,15.08846726,8.22e-05,53.2154,227.9048,71.3609,288.7473,0.00069406,0.00010777,0.0,0 STARLINK-4800,1 53854U 22114AN  23134.75657982  .00010777  00000-0  69406-3 0  9997,2 53854  53.2154 227.9048 0000822  71.3609 288.7473 15.08846726 37621,6917.86,95.437,540.293,539.156,0.0
53854.0,STARLINK-4800,PAYLOAD,2023-05-15 13:14:06,15.08845344,7.45e-05,53.2156,224.3368,81.8644,278.2433,0.00051401,7.903e-05,0.0,0 STARLINK-4800,1 53854U 22114AN  23135.55146269  .00007903  00000-0  51401-3 0  9990,2 53854  53.2156 224.3368 0000745  81.8644 278.2433 15.08845344 37207,6917.864,95.437,540.244,539.214,0.0
53854.0,STARLINK-4800,PAYLOAD,2023-05-15 14:49:29,15.08845746,7.36e-05,53.2156,224.0394,81.6362,278.4714,0.0004758,7.294e-05,0.0,0 STARLINK-4800,1 53854U 22114AN  23135.61770234  .00007294  00000-0  47580-3 0  9998,2 53854  53.2156 224.0394 0000736  81.6362 278.4714 15.08845746 37758,6917.863,95.437,540.237,539.219,0.0
53854.0,STARLINK-4800,PAYLOAD,2023-05-16 06:43:21,15.08839863,7.43e-05,53.2155,221.066,80.4102,279.6974,0.00019879,2.877e-05,0.0,0 STARLINK-4800,1 53854U 22114AN  23136.28010543  .00002877  00000-0  19879-3 0  9994,2 53854  53.2155 221.0660 0000743  80.4102 279.6974 15.08839863 37313,6917.881,95.438,540.26,539.232,0.0
53854.0,STARLINK-4800,PAYLOAD,2023-05-16 13:04:53,15.08845321,7.02e-05,53.2155,219.8766,82.7801,277.3271,0.00034596,5.223e-05,0.0,0 STARLINK-4800,1 53854U 22114AN  23136.54506382  .00005223  00000-0  34596-3 0  9995,2 53854  53.2155 219.8766 0000702  82.7801 277.3271 15.08845321 37895,6917.864,95.437,540.215,539.243,0.0
53854.0,STARLINK-4800,PAYLOAD,2023-05-16 21:01:49,15.08840412,7.07e-05,53.2152,218.3894,79.4216,280.6856,0.00013028,1.786e-05,0.0,0 STARLINK-4800,1 53854U 22114AN  23136.87626425  .00001786  00000-0  13028-3 0  9999,2 53854  53.2152 218.3894 0000707  79.4216 280.6856 15.08840412 37944,6917.879,95.438,540.233,539.255,0.0
53854.0,STARLINK-4800,PAYLOAD,2023-05-17 11:20:17,15.08846315,6.68e-05,53.2154,215.7137,80.3333,279.7734,0.00022947,3.367e-05,0.0,0 STARLINK-4800,1 53854U 22114AN  23137.47242247  .00003367  00000-0  22947-3 0  9999,2 53854  53.2154 215.7137 0000668  80.3333 279.7734 15.08846315 37496,6917.861,95.437,540.188,539.264,0.0
53854.0,STARLINK-4800,PAYLOAD,2023-05-17 12:55:40,15.08848658,6.77e-05,53.2154,215.4163,80.2326,279.8743,0.00028295,4.219e-05,0.0,0 STARLINK-4800,1 53854U 22114AN  23137.53866168  .00004219  00000-0  28295-3 0  9999,2 53854  53.2154 215.4163 0000677  80.2326 279.8743 15.08848658 38048,6917.854,95.437,540.187,539.251,0.0
53854.0,STARLINK-4800,PAYLOAD,2023-05-18 11:11:04,15.08840881,7.8e-05,53.215,211.253,78.3686,281.7394,0.0001239,1.685e-05,0.0,0 STARLINK-4800,1 53854U 22114AN  23138.46602525  .00001685  00000-0  12390-3 0  9990,2 53854  53.2150 211.2530 0000780  78.3686 281.7394 15.08840881 37647,6917.878,95.437,540.282,539.203,0.0
53854.0,STARLINK-4800,PAYLOAD,2023-05-18 22:18:46,15.08837034,8.19e-05,53.2146,209.1716,75.4321,284.6762,7.0926e-05,8.41e-06,0.0,0 STARLINK-4800,1 53854U 22114AN  23138.92970746  .00000841  00000-0  70926-4 0  9997,2 53854  53.2146 209.1716 0000819  75.4321 284.6762 15.08837034 38256,6917.889,95.438,540.321,539.188,0.0
53854.0,STARLINK-4800,PAYLOAD,2023-05-19 09:26:28,15.08838419,8.28e-05,53.2148,207.0902,73.5225,286.5858,5.9416e-05,6.58e-06,0.0,0 STARLINK-4800,1 53854U 22114AN  23139.39338880  .00000658  00000-0  59416-4 0  9993,2 53854  53.2148 207.0902 0000828  73.5225 286.5858 15.08838419 37786,6917.885,95.438,540.323,539.177,0.0
